CAS-4B
1 42759U 17034B   17252.32206730  .00002470  00000-0  16713-3 0  9996
2 42759  43.0185 184.8541 0007273 160.3449 341.6378 15.08984684 13017
CAS-4A
1 42761U 17034D   17252.90062628  .00002879  00000-0  19211-3 0  9998
2 42761  43.0189 181.6264 0007547 163.9829 267.6343 15.09063569 13094
UCLSat
1 42765U 17036A   17252.44003746  .00005749  00000-0  26263-3 0  9993
2 42765 097.4416 311.2828 0011521 348.0658 012.0303 15.20912179012612
NIUSat
1 42766U 17036B   17252.57066824  .00005912  00000-0  27986-3 0  9999
2 42766 097.4418 311.2648 0015298 330.2203 029.8160 15.19626169011906
LituanicaSAT 2
1 42768U 17036D   17252.23370084  .00009946  00000-0  46485-3 0  9996
2 42768 097.4418 310.9475 0015332 334.7950 025.2535 15.19885708011866
InflateSail
1 42770U 17036F   17245.93730135  .99999999  00000-0  73960-1 0  9995
2 42770 097.4262 306.2162 0014869 278.7167 080.9844 16.07641391010932
Aalto 1
1 42775U 17036L   17252.61108279  .00004708  00000-0  22065-3 0  9990
2 42775 097.4417 311.3621 0013537 331.8610 028.1892 15.20101486011861
URSA MAIOR
1 42776U 17036M   17252.60912250  .00004843  00000-0  22662-3 0  9995
2 42776 097.4419 311.3673 0013380 332.3141 027.7380 15.20142770011860
Max Valier Sat
1 42778U 17036P   17252.39202986  .00004892  00000-0  22638-3 0  9998
2 42778 097.4436 311.2144 0012043 339.9984 020.0778 15.20537928011822
Pegasus
1 42784U 17036V   17252.24945572  .00005601  00000-0  25697-3 0  9991
2 42784  97.4419 311.0813 0012067 348.2907  11.8046 15.20767310 11809
NUDATSat
1 42787U 17036Y   17252.70345582  .00009046  00000-0  41058-3 0  9996
2 42787  97.4418 311.5443 0011634 347.1110  12.9826 15.20967407 11715
SUCHAI 1
1 42788U 17036Z   17252.83656763  .00005848  00000-0  26723-3 0  9995
2 42788  97.4416 311.6715 0011650 346.5369  13.5554 15.20895101 11967
SKCUBE
1 42789U 17036AA  17252.57139382  .00007423  00000-0  33800-3 0  9995
2 42789 097.4415 311.4134 0011495 347.6184 012.4768 15.20924784011846
VZLUSAT 1
1 42790U 17036AB  17252.43568421  .00006836  00000-0  31063-3 0  9998
2 42790 097.4414 311.2865 0011234 348.7110 011.3871 15.21024703011822
VENTA 1
1 42791U 17036AC  17252.36868765  .00006338  00000-0  28830-3 0  9990
2 42791 097.4416 311.2251 0011153 349.4957 010.6044 15.21022008011809
Robusta 1B
1 42792U 17036AD  17252.69663288  .00007355  00000-0  33368-3 0  9992
2 42792  97.4412 311.5488 0011102 348.7403  11.3582 15.21054945 11870
D-SAT
1 42794U 17036AF  17252.22308936  .00003512  00000-0  16026-3 0  9992
2 42794 097.4413 311.1080 0009387 350.0175 010.0873 15.21238290011798
BIRD-J
1 42820U 98067MU  17252.59779736  .00039603  00000-0  54870-3 0  9994
2 42820 051.6398 336.8548 0002105 202.3074 157.7826 15.56676255010019
BIRD-G
1 42821U 98067MV  17252.53571163  .00038819  00000-0  53976-3 0  9997
2 42821  51.6401 337.1903 0002214 204.6629 155.4257 15.56589667  9961
BIRD-M
1 42822U 98067MW  17252.60069969  .00037080  00000-0  51597-3 0  9998
2 42822 051.6402 336.8748 0002213 208.6867 151.4003 15.56591065009996
BIRD-B
1 42823U 98067MX  17252.60236645  .00038433  00000-0  53465-3 0  9995
2 42823 051.6404 336.8878 0005760 225.4520 134.6002 15.56567067009993
