Satellite: CAS-4B
Catalog number: 42759
Epoch time: 17252.322067
Element set: 999
Inclination: 43.018500 deg
RA of node: 184.854100 deg
Eccentricity: 0.000727
Arg of perigee: 160.344900 deg
Mean anomaly: 341.637800 deg
Mean motion: 15.089847 rev/day
Decay rate: 2.470000e-05 rev/day^2
Epoch rev: 1301

Satellite: CAS-4A
Catalog number: 42761
Epoch time: 17252.900626
Element set: 999
Inclination: 43.018900 deg
RA of node: 181.626400 deg
Eccentricity: 0.000755
Arg of perigee: 163.982900 deg
Mean anomaly: 267.634300 deg
Mean motion: 15.090636 rev/day
Decay rate: 2.879000e-05 rev/day^2
Epoch rev: 1309

Satellite: UCLSat
Catalog number: 42765
Epoch time: 17252.440037
Element set: 999
Inclination: 97.441600 deg
RA of node: 311.282800 deg
Eccentricity: 0.001152
Arg of perigee: 348.065800 deg
Mean anomaly: 12.030300 deg
Mean motion: 15.209122 rev/day
Decay rate: 5.749000e-05 rev/day^2
Epoch rev: 126

Satellite: NIUSat
Catalog number: 42766
Epoch time: 17252.570668
Element set: 999
Inclination: 97.441800 deg
RA of node: 311.264800 deg
Eccentricity: 0.001530
Arg of perigee: 330.220300 deg
Mean anomaly: 29.816000 deg
Mean motion: 15.196262 rev/day
Decay rate: 5.912000e-05 rev/day^2
Epoch rev: 119

Satellite: LituanicaSAT 2
Catalog number: 42768
Epoch time: 17252.233701
Element set: 999
Inclination: 97.441800 deg
RA of node: 310.947500 deg
Eccentricity: 0.001533
Arg of perigee: 334.795000 deg
Mean anomaly: 25.253500 deg
Mean motion: 15.198857 rev/day
Decay rate: 9.946000e-05 rev/day^2
Epoch rev: 118

Satellite: InflateSail
Catalog number: 42770
Epoch time: 17245.937301
Element set: 999
Inclination: 97.426200 deg
RA of node: 306.216200 deg
Eccentricity: 0.001487
Arg of perigee: 278.716700 deg
Mean anomaly: 80.984400 deg
Mean motion: 16.076414 rev/day
Decay rate: 1.000000e+00 rev/day^2
Epoch rev: 109

Satellite: Aalto 1
Catalog number: 42775
Epoch time: 17252.611083
Element set: 999
Inclination: 97.441700 deg
RA of node: 311.362100 deg
Eccentricity: 0.001354
Arg of perigee: 331.861000 deg
Mean anomaly: 28.189200 deg
Mean motion: 15.201015 rev/day
Decay rate: 4.708000e-05 rev/day^2
Epoch rev: 118

Satellite: URSA MAIOR
Catalog number: 42776
Epoch time: 17252.609122
Element set: 999
Inclination: 97.441900 deg
RA of node: 311.367300 deg
Eccentricity: 0.001338
Arg of perigee: 332.314100 deg
Mean anomaly: 27.738000 deg
Mean motion: 15.201428 rev/day
Decay rate: 4.843000e-05 rev/day^2
Epoch rev: 118

Satellite: Max Valier Sat
Catalog number: 42778
Epoch time: 17252.392030
Element set: 999
Inclination: 97.443600 deg
RA of node: 311.214400 deg
Eccentricity: 0.001204
Arg of perigee: 339.998400 deg
Mean anomaly: 20.077800 deg
Mean motion: 15.205379 rev/day
Decay rate: 4.892000e-05 rev/day^2
Epoch rev: 118

Satellite: Pegasus
Catalog number: 42784
Epoch time: 17252.249456
Element set: 999
Inclination: 97.441900 deg
RA of node: 311.081300 deg
Eccentricity: 0.001207
Arg of perigee: 348.290700 deg
Mean anomaly: 11.804600 deg
Mean motion: 15.207673 rev/day
Decay rate: 5.601000e-05 rev/day^2
Epoch rev: 1180

Satellite: NUDATSat
Catalog number: 42787
Epoch time: 17252.703456
Element set: 999
Inclination: 97.441800 deg
RA of node: 311.544300 deg
Eccentricity: 0.001163
Arg of perigee: 347.111000 deg
Mean anomaly: 12.982600 deg
Mean motion: 15.209674 rev/day
Decay rate: 9.046000e-05 rev/day^2
Epoch rev: 1171

Satellite: SUCHAI 1
Catalog number: 42788
Epoch time: 17252.836568
Element set: 999
Inclination: 97.441600 deg
RA of node: 311.671500 deg
Eccentricity: 0.001165
Arg of perigee: 346.536900 deg
Mean anomaly: 13.555400 deg
Mean motion: 15.208951 rev/day
Decay rate: 5.848000e-05 rev/day^2
Epoch rev: 1196

Satellite: SKCUBE
Catalog number: 42789
Epoch time: 17252.571394
Element set: 999
Inclination: 97.441500 deg
RA of node: 311.413400 deg
Eccentricity: 0.001149
Arg of perigee: 347.618400 deg
Mean anomaly: 12.476800 deg
Mean motion: 15.209248 rev/day
Decay rate: 7.423000e-05 rev/day^2
Epoch rev: 118

Satellite: VZLUSAT 1
Catalog number: 42790
Epoch time: 17252.435684
Element set: 999
Inclination: 97.441400 deg
RA of node: 311.286500 deg
Eccentricity: 0.001123
Arg of perigee: 348.711000 deg
Mean anomaly: 11.387100 deg
Mean motion: 15.210247 rev/day
Decay rate: 6.836000e-05 rev/day^2
Epoch rev: 118

Satellite: VENTA 1
Catalog number: 42791
Epoch time: 17252.368688
Element set: 999
Inclination: 97.441600 deg
RA of node: 311.225100 deg
Eccentricity: 0.001115
Arg of perigee: 349.495700 deg
Mean anomaly: 10.604400 deg
Mean motion: 15.210220 rev/day
Decay rate: 6.338000e-05 rev/day^2
Epoch rev: 118

Satellite: Robusta 1B
Catalog number: 42792
Epoch time: 17252.696633
Element set: 999
Inclination: 97.441200 deg
RA of node: 311.548800 deg
Eccentricity: 0.001110
Arg of perigee: 348.740300 deg
Mean anomaly: 11.358200 deg
Mean motion: 15.210549 rev/day
Decay rate: 7.355000e-05 rev/day^2
Epoch rev: 1187

Satellite: D-SAT
Catalog number: 42794
Epoch time: 17252.223089
Element set: 999
Inclination: 97.441300 deg
RA of node: 311.108000 deg
Eccentricity: 0.000939
Arg of perigee: 350.017500 deg
Mean anomaly: 10.087300 deg
Mean motion: 15.212383 rev/day
Decay rate: 3.512000e-05 rev/day^2
Epoch rev: 117

Satellite: BIRD-J
Catalog number: 42820
Epoch time: 17252.597797
Element set: 999
Inclination: 51.639800 deg
RA of node: 336.854800 deg
Eccentricity: 0.000210
Arg of perigee: 202.307400 deg
Mean anomaly: 157.782600 deg
Mean motion: 15.566763 rev/day
Decay rate: 3.960300e-04 rev/day^2
Epoch rev: 100

Satellite: BIRD-G
Catalog number: 42821
Epoch time: 17252.535712
Element set: 999
Inclination: 51.640100 deg
RA of node: 337.190300 deg
Eccentricity: 0.000221
Arg of perigee: 204.662900 deg
Mean anomaly: 155.425700 deg
Mean motion: 15.565897 rev/day
Decay rate: 3.881900e-04 rev/day^2
Epoch rev: 996

Satellite: BIRD-M
Catalog number: 42822
Epoch time: 17252.600700
Element set: 999
Inclination: 51.640200 deg
RA of node: 336.874800 deg
Eccentricity: 0.000221
Arg of perigee: 208.686700 deg
Mean anomaly: 151.400300 deg
Mean motion: 15.565911 rev/day
Decay rate: 3.708000e-04 rev/day^2
Epoch rev: 99

Satellite: BIRD-B
Catalog number: 42823
Epoch time: 17252.602366
Element set: 999
Inclination: 51.640400 deg
RA of node: 336.887800 deg
Eccentricity: 0.000576
Arg of perigee: 225.452000 deg
Mean anomaly: 134.600200 deg
Mean motion: 15.565671 rev/day
Decay rate: 3.843300e-04 rev/day^2
Epoch rev: 99

